{"type": "FeatureCollection", "features": [ {"type": "Feature", "properties": {"norad_id": 60989, "name": "SENTINEL-2C", "group": "resource", "lat": -51.10585598300435, "lon": 81.4899284143065, "alt_km": 796.7981305947424, "timestamp": "2025-12-24T09:46:30.653436+00:00", "meta": {"OBJECT_NAME": "SENTINEL-2C", "OBJECT_ID": "2024-157A", "EPOCH": "2025-12-24T03:18:14.918688", "MEAN_MOTION": 14.30816828, "ECCENTRICITY": 0.000138, "INCLINATION": 98.5667, "RA_OF_ASC_NODE": 70.4552, "ARG_OF_PERICENTER": 103.8913, "MEAN_ANOMALY": 256.2423, "EPHEMERIS_TYPE": 0, "CLASSIFICATION_TYPE": "U", "NORAD_CAT_ID": 60989, "ELEMENT_SET_NO": 999, "REV_AT_EPOCH": 6795, "BSTAR": 7.3444e-05, "MEAN_MOTION_DOT": 1.49e-06, "MEAN_MOTION_DDOT": 0}, "tle": {"line1": "1 60989U 24157A   25358.13767267  .00000149  00000+0  73444-4 0  9992", "line2": "2 60989  98.5667  70.4552 0001380 103.8913 256.2423 14.30816828 67957"}}, "geometry": {"type": "Point", "coordinates": [81.4899284143065, -51.10585598300435]}}, {"type": "Feature", "properties": {"norad_id": 61735, "name": "IONOSFERA-M 1", "group": "resource", "lat": -53.934647436409, "lon": 35.970753164836346, "alt_km": 823.3392746746995, "timestamp": "2025-12-24T09:46:30.653446+00:00", "meta": {"OBJECT_NAME": "IONOSFERA-M 1", "OBJECT_ID": "2024-199A", "EPOCH": "2025-12-24T05:17:56.891040", "MEAN_MOTION": 14.22716476, "ECCENTRICITY": 3.96e-05, "INCLINATION": 98.7403, "RA_OF_ASC_NODE": 227.9805, "ARG_OF_PERICENTER": 6.8026, "MEAN_ANOMALY": 353.3157, "EPHEMERIS_TYPE": 0, "CLASSIFICATION_TYPE": "U", "NORAD_CAT_ID": 61735, "ELEMENT_SET_NO": 999, "REV_AT_EPOCH": 10282, "BSTAR": 4.7345e-05, "MEAN_MOTION_DOT": 6.2e-07, "MEAN_MOTION_DDOT": 0}, "tle": {"line1": "1 61735U 24199A   25358.22079735  .00000062  00000+0  47345-4 0  9999", "line2": "2 61735  98.7403 227.9805 0000396   6.8026 353.3157 14.22716476102828"}}, "geometry": {"type": "Point", "coordinates": [35.970753164836346, -53.934647436409]}}, {"type": "Feature", "properties": {"norad_id": 61736, "name": "IONOSFERA-M 2", "group": "resource", "lat": 56.45418760279008, "lon": -145.3371574703759, "alt_km": 809.6784441406471, "timestamp": "2025-12-24T09:46:30.653457+00:00", "meta": {"OBJECT_NAME": "IONOSFERA-M 2", "OBJECT_ID": "2024-199B", "EPOCH": "2025-12-24T04:26:32.609760", "MEAN_MOTION": 14.22718667, "ECCENTRICITY": 0.000185, "INCLINATION": 98.7395, "RA_OF_ASC_NODE": 227.8574, "ARG_OF_PERICENTER": 95.845, "MEAN_ANOMALY": 264.2938, "EPHEMERIS_TYPE": 0, "CLASSIFICATION_TYPE": "U", "NORAD_CAT_ID": 61736, "ELEMENT_SET_NO": 999, "REV_AT_EPOCH": 10594, "BSTAR": 4.4818e-05, "MEAN_MOTION_DOT": 5.6e-07, "MEAN_MOTION_DDOT": 0}, "tle": {"line1": "1 61736U 24199B   25358.18509965  .00000056  00000+0  44818-4 0  9993", "line2": "2 61736  98.7395 227.8574 0001850  95.8450 264.2938 14.22718667105943"}}, "geometry": {"type": "Point", "coordinates": [-145.3371574703759, 56.45418760279008]}}, {"type": "Feature", "properties": {"norad_id": 63772, "name": "BIOMASS", "group": "resource", "lat": -30.64154488502948, "lon": -171.93297445603224, "alt_km": 675.1803532949561, "timestamp": "2025-12-24T09:46:30.653467+00:00", "meta": {"OBJECT_NAME": "BIOMASS", "OBJECT_ID": "2025-090A", "EPOCH": "2025-12-24T01:44:03.175008", "MEAN_MOTION": 14.67540214, "ECCENTRICITY": 8.57e-05, "INCLINATION": 98.0687, "RA_OF_ASC_NODE": 182.9166, "ARG_OF_PERICENTER": 84.4588, "MEAN_ANOMALY": 275.6714, "EPHEMERIS_TYPE": 0, "CLASSIFICATION_TYPE": "U", "NORAD_CAT_ID": 63772, "ELEMENT_SET_NO": 999, "REV_AT_EPOCH": 3500, "BSTAR": 0.00021783, "MEAN_MOTION_DOT": 1.187e-05, "MEAN_MOTION_DDOT": 0}, "tle": {"line1": "1 63772U 25090A   25358.07225897  .00001187  00000+0  21783-3 0  9994", "line2": "2 63772  98.0687 182.9166 0000857  84.4588 275.6714 14.67540214 35009"}}, "geometry": {"type": "Point", "coordinates": [-171.93297445603224, -30.64154488502948]}}, {"type": "Feature", "properties": {"norad_id": 64694, "name": "GOSAT-GW (IBUKI GW)", "group": "resource", "lat": 0.12986674625033048, "lon": 113.72878559209194, "alt_km": 671.9444488583904, "timestamp": "2025-12-24T09:46:30.653477+00:00", "meta": {"OBJECT_NAME": "GOSAT-GW (IBUKI GW)", "OBJECT_ID": "2025-141A", "EPOCH": "2025-12-24T04:02:59.237952", "MEAN_MOTION": 14.67557626, "ECCENTRICITY": 0.0001409, "INCLINATION": 98.0433, "RA_OF_ASC_NODE": 293.4762, "ARG_OF_PERICENTER": 85.4769, "MEAN_ANOMALY": 274.6596, "EPHEMERIS_TYPE": 0, "CLASSIFICATION_TYPE": "U", "NORAD_CAT_ID": 64694, "ELEMENT_SET_NO": 999, "REV_AT_EPOCH": 2617, "BSTAR": 0.00018082, "MEAN_MOTION_DOT": 9.78e-06, "MEAN_MOTION_DDOT": 0}, "tle": {"line1": "1 64694U 25141A   25358.16874118  .00000978  00000+0  18082-3 0  9996", "line2": "2 64694  98.0433 293.4762 0001409  85.4769 274.6596 14.67557626 26178"}}, "geometry": {"type": "Point", "coordinates": [113.72878559209194, 0.12986674625033048]}}, {"type": "Feature", "properties": {"norad_id": 64876, "name": "IONOSFERA-M 3", "group": "resource", "lat": 47.385734042851986, "lon": -49.50092183136055, "alt_km": 814.8922298529224, "timestamp": "2025-12-24T09:46:30.653488+00:00", "meta": {"OBJECT_NAME": "IONOSFERA-M 3", "OBJECT_ID": "2025-155A", "EPOCH": "2025-12-24T04:28:53.857344", "MEAN_MOTION": 14.21443697, "ECCENTRICITY": 0.0001881, "INCLINATION": 98.5799, "RA_OF_ASC_NODE": 319.7297, "ARG_OF_PERICENTER": 41.4353, "MEAN_ANOMALY": 318.6967, "EPHEMERIS_TYPE": 0, "CLASSIFICATION_TYPE": "U", "NORAD_CAT_ID": 64876, "ELEMENT_SET_NO": 999, "REV_AT_EPOCH": 2154, "BSTAR": 5.4285e-05, "MEAN_MOTION_DOT": 7.6e-07, "MEAN_MOTION_DDOT": 0}, "tle": {"line1": "1 64876U 25155A   25358.18673446  .00000076  00000+0  54285-4 0  9991", "line2": "2 64876  98.5799 319.7297 0001881  41.4353 318.6967 14.21443697 21549"}}, "geometry": {"type": "Point", "coordinates": [-49.50092183136055, 47.385734042851986]}}, {"type": "Feature", "properties": {"norad_id": 64877, "name": "IONOSFERA-M 4", "group": "resource", "lat": -48.222685685805146, "lon": 130.1343365725091, "alt_km": 828.2186323041751, "timestamp": "2025-12-24T09:46:30.653498+00:00", "meta": {"OBJECT_NAME": "IONOSFERA-M 4", "OBJECT_ID": "2025-155B", "EPOCH": "2025-12-24T03:38:01.048992", "MEAN_MOTION": 14.21444817, "ECCENTRICITY": 0.0001314, "INCLINATION": 98.5799, "RA_OF_ASC_NODE": 319.6147, "ARG_OF_PERICENTER": 52.4434, "MEAN_ANOMALY": 307.6863, "EPHEMERIS_TYPE": 0, "CLASSIFICATION_TYPE": "U", "NORAD_CAT_ID": 64877, "ELEMENT_SET_NO": 999, "REV_AT_EPOCH": 2153, "BSTAR": 5.2625e-05, "MEAN_MOTION_DOT": 7.2e-07, "MEAN_MOTION_DDOT": 0}, "tle": {"line1": "1 64877U 25155B   25358.15140103  .00000072  00000+0  52625-4 0  9990", "line2": "2 64877  98.5799 319.6147 0001314  52.4434 307.6863 14.21444817 21533"}}, "geometry": {"type": "Point", "coordinates": [130.1343365725091, -48.222685685805146]}}, {"type": "Feature", "properties": {"norad_id": 64899, "name": "MICROCARB", "group": "resource", "lat": -13.842534304623518, "lon": 75.55116349166572, "alt_km": 665.9060991393399, "timestamp": "2025-12-24T09:46:30.653508+00:00", "meta": {"OBJECT_NAME": "MICROCARB", "OBJECT_ID": "2025-156A", "EPOCH": "2025-12-24T03:18:47.862144", "MEAN_MOTION": 14.72074838, "ECCENTRICITY": 0.0017604, "INCLINATION": 98.0011, "RA_OF_ASC_NODE": 73.3001, "ARG_OF_PERICENTER": 110.5921, "MEAN_ANOMALY": 249.7177, "EPHEMERIS_TYPE": 0, "CLASSIFICATION_TYPE": "U", "NORAD_CAT_ID": 64899, "ELEMENT_SET_NO": 999, "REV_AT_EPOCH": 2221, "BSTAR": 0.0001197, "MEAN_MOTION_DOT": 7.04e-06, "MEAN_MOTION_DDOT": 0}, "tle": {"line1": "1 64899U 25156A   25358.13805396  .00000704  00000+0  11970-3 0  9994", "line2": "2 64899  98.0011  73.3001 0017604 110.5921 249.7177 14.72074838 22216"}}, "geometry": {"type": "Point", "coordinates": [75.55116349166572, -13.842534304623518]}}, {"type": "Feature", "properties": {"norad_id": 64900, "name": "CO3D 3", "group": "resource", "lat": -65.16342158190065, "lon": -121.7785688047977, "alt_km": 513.3398703490748, "timestamp": "2025-12-24T09:46:30.653519+00:00", "meta": {"OBJECT_NAME": "CO3D 3", "OBJECT_ID": "2025-156B", "EPOCH": "2025-12-24T03:57:22.727232", "MEAN_MOTION": 15.20212275, "ECCENTRICITY": 0.0001315, "INCLINATION": 97.4338, "RA_OF_ASC_NODE": 74.3682, "ARG_OF_PERICENTER": 74.4142, "MEAN_ANOMALY": 285.7238, "EPHEMERIS_TYPE": 0, "CLASSIFICATION_TYPE": "U", "NORAD_CAT_ID": 64900, "ELEMENT_SET_NO": 999, "REV_AT_EPOCH": 2294, "BSTAR": 0.00030688, "MEAN_MOTION_DOT": 6.584e-05, "MEAN_MOTION_DDOT": 0}, "tle": {"line1": "1 64900U 25156B   25358.16484638  .00006584  00000+0  30688-3 0  9991", "line2": "2 64900  97.4338  74.3682 0001315  74.4142 285.7238 15.20212275 22946"}}, "geometry": {"type": "Point", "coordinates": [-121.7785688047977, -65.16342158190065]}}, {"type": "Feature", "properties": {"norad_id": 64901, "name": "CO3D 4", "group": "resource", "lat": -64.3841388797533, "lon": -121.19512036528162, "alt_km": 512.3650017822911, "timestamp": "2025-12-24T09:46:30.653529+00:00", "meta": {"OBJECT_NAME": "CO3D 4", "OBJECT_ID": "2025-156C", "EPOCH": "2025-12-24T05:32:22.840224", "MEAN_MOTION": 15.20216396, "ECCENTRICITY": 0.00014, "INCLINATION": 97.4337, "RA_OF_ASC_NODE": 74.4333, "ARG_OF_PERICENTER": 159.3105, "MEAN_ANOMALY": 200.8187, "EPHEMERIS_TYPE": 0, "CLASSIFICATION_TYPE": "U", "NORAD_CAT_ID": 64901, "ELEMENT_SET_NO": 999, "REV_AT_EPOCH": 2295, "BSTAR": 0.00032923, "MEAN_MOTION_DOT": 7.069e-05, "MEAN_MOTION_DDOT": 0}, "tle": {"line1": "1 64901U 25156C   25358.23081991  .00007069  00000+0  32923-3 0  9998", "line2": "2 64901  97.4337  74.4333 0001400 159.3105 200.8187 15.20216396 22957"}}, "geometry": {"type": "Point", "coordinates": [-121.19512036528162, -64.3841388797533]}}]}